[{"OBJECT_NAME":"STARLINK-36827","OBJECT_ID":"2026-036E","EPOCH":"2026-03-03T14:00:03.000384","MEAN_MOTION":15.82780264,"ECCENTRICITY":0.0001889,"INCLINATION":42.9942,"RA_OF_ASC_NODE":287.1905,"ARG_OF_PERICENTER":261.1311,"MEAN_ANOMALY":89.5316,"EPHEMERIS_TYPE":0,"CLASSIFICATION_TYPE":"U","NORAD_CAT_ID":67908,"ELEMENT_SET_NO":999,"REV_AT_EPOCH":266,"BSTAR":-0.0051334,"MEAN_MOTION_DOT":-0.00999604,"MEAN_MOTION_DDOT":0},{"OBJECT_NAME":"STARLINK-36822","OBJECT_ID":"2026-036F","EPOCH":"2026-03-03T14:00:03.000384","MEAN_MOTION":15.83056559,"ECCENTRICITY":0.0001886,"INCLINATION":42.9943,"RA_OF_ASC_NODE":287.1809,"ARG_OF_PERICENTER":255.3444,"MEAN_ANOMALY":99.3643,"EPHEMERIS_TYPE":0,"CLASSIFICATION_TYPE":"U","NORAD_CAT_ID":67909,"ELEMENT_SET_NO":999,"REV_AT_EPOCH":266,"BSTAR":-0.0064399,"MEAN_MOTION_DOT":-0.01259682,"MEAN_MOTION_DDOT":0},{"OBJECT_NAME":"STARLINK-36847","OBJECT_ID":"2026-036G","EPOCH":"2026-03-03T14:00:03.000384","MEAN_MOTION":15.83322638,"ECCENTRICITY":0.000189,"INCLINATION":42.9943,"RA_OF_ASC_NODE":287.1704,"ARG_OF_PERICENTER":262.8599,"MEAN_ANOMALY":95.8721,"EPHEMERIS_TYPE":0,"CLASSIFICATION_TYPE":"U","NORAD_CAT_ID":67910,"ELEMENT_SET_NO":999,"REV_AT_EPOCH":266,"BSTAR":-0.0075153,"MEAN_MOTION_DOT":-0.01488097,"MEAN_MOTION_DDOT":0},{"OBJECT_NAME":"STARLINK-36736","OBJECT_ID":"2026-036H","EPOCH":"2026-03-03T14:00:03.000384","MEAN_MOTION":15.83523319,"ECCENTRICITY":0.0001692,"INCLINATION":42.9941,"RA_OF_ASC_NODE":287.1602,"ARG_OF_PERICENTER":264.1067,"MEAN_ANOMALY":98.6323,"EPHEMERIS_TYPE":0,"CLASSIFICATION_TYPE":"U","NORAD_CAT_ID":67911,"ELEMENT_SET_NO":999,"REV_AT_EPOCH":266,"BSTAR":-0.0077285,"MEAN_MOTION_DOT":-0.0153806,"MEAN_MOTION_DDOT":0},{"OBJECT_NAME":"STARLINK-36676","OBJECT_ID":"2026-036J","EPOCH":"2026-03-03T14:00:03.000384","MEAN_MOTION":15.83753852,"ECCENTRICITY":0.0001816,"INCLINATION":42.9943,"RA_OF_ASC_NODE":287.1504,"ARG_OF_PERICENTER":268.2202,"MEAN_ANOMALY":98.4473,"EPHEMERIS_TYPE":0,"CLASSIFICATION_TYPE":"U","NORAD_CAT_ID":67912,"ELEMENT_SET_NO":999,"REV_AT_EPOCH":266,"BSTAR":-0.0079815,"MEAN_MOTION_DOT":-0.01597622,"MEAN_MOTION_DDOT":0},{"OBJECT_NAME":"STARLINK-36690","OBJECT_ID":"2026-036K","EPOCH":"2026-03-03T14:00:03.000384","MEAN_MOTION":15.83890184,"ECCENTRICITY":0.0001792,"INCLINATION":42.9944,"RA_OF_ASC_NODE":287.1405,"ARG_OF_PERICENTER":260.2115,"MEAN_ANOMALY":110.4596,"EPHEMERIS_TYPE":0,"CLASSIFICATION_TYPE":"U","NORAD_CAT_ID":67913,"ELEMENT_SET_NO":999,"REV_AT_EPOCH":266,"BSTAR":-0.0078046,"MEAN_MOTION_DOT":-0.01575656,"MEAN_MOTION_DDOT":0},{"OBJECT_NAME":"STARLINK-36724","OBJECT_ID":"2026-036L","EPOCH":"2026-03-03T14:00:03.000384","MEAN_MOTION":15.8425047,"ECCENTRICITY":0.0001728,"INCLINATION":42.994,"RA_OF_ASC_NODE":287.1202,"ARG_OF_PERICENTER":266.2127,"MEAN_ANOMALY":112.273,"EPHEMERIS_TYPE":0,"CLASSIFICATION_TYPE":"U","NORAD_CAT_ID":67914,"ELEMENT_SET_NO":999,"REV_AT_EPOCH":266,"BSTAR":-0.007829,"MEAN_MOTION_DOT":-0.01604159,"MEAN_MOTION_DDOT":0},{"OBJECT_NAME":"STARLINK-36723","OBJECT_ID":"2026-036M","EPOCH":"2026-03-03T14:00:03.000384","MEAN_MOTION":15.84052142,"ECCENTRICITY":0.0001938,"INCLINATION":42.9943,"RA_OF_ASC_NODE":287.1303,"ARG_OF_PERICENTER":266.5615,"MEAN_ANOMALY":108.0867,"EPHEMERIS_TYPE":0,"CLASSIFICATION_TYPE":"U","NORAD_CAT_ID":67915,"ELEMENT_SET_NO":999,"REV_AT_EPOCH":266,"BSTAR":-0.0079201,"MEAN_MOTION_DOT":-0.01607096,"MEAN_MOTION_DDOT":0},{"OBJECT_NAME":"STARLINK-36721","OBJECT_ID":"2026-036N","EPOCH":"2026-03-03T14:00:03.000384","MEAN_MOTION":15.84377806,"ECCENTRICITY":0.0001725,"INCLINATION":42.9944,"RA_OF_ASC_NODE":287.1107,"ARG_OF_PERICENTER":268.7949,"MEAN_ANOMALY":113.6718,"EPHEMERIS_TYPE":0,"CLASSIFICATION_TYPE":"U","NORAD_CAT_ID":67916,"ELEMENT_SET_NO":999,"REV_AT_EPOCH":266,"BSTAR":-0.0077936,"MEAN_MOTION_DOT":-0.0160647,"MEAN_MOTION_DDOT":0},{"OBJECT_NAME":"STARLINK-36722","OBJECT_ID":"2026-036P","EPOCH":"2026-03-03T14:00:03.000384","MEAN_MOTION":15.84546406,"ECCENTRICITY":0.0002031,"INCLINATION":42.9944,"RA_OF_ASC_NODE":287.1011,"ARG_OF_PERICENTER":264.503,"MEAN_ANOMALY":121.8015,"EPHEMERIS_TYPE":0,"CLASSIFICATION_TYPE":"U","NORAD_CAT_ID":67917,"ELEMENT_SET_NO":999,"REV_AT_EPOCH":266,"BSTAR":-0.0076896,"MEAN_MOTION_DOT":-0.01599417,"MEAN_MOTION_DDOT":0},{"OBJECT_NAME":"STARLINK-36341","OBJECT_ID":"2026-036Q","EPOCH":"2026-03-03T14:00:03.000384","MEAN_MOTION":15.84879401,"ECCENTRICITY":0.0001747,"INCLINATION":42.9942,"RA_OF_ASC_NODE":287.0816,"ARG_OF_PERICENTER":266.4834,"MEAN_ANOMALY":127.4539,"EPHEMERIS_TYPE":0,"CLASSIFICATION_TYPE":"U","NORAD_CAT_ID":67918,"ELEMENT_SET_NO":999,"REV_AT_EPOCH":266,"BSTAR":-0.0075744,"MEAN_MOTION_DOT":-0.01600745,"MEAN_MOTION_DDOT":0},{"OBJECT_NAME":"STARLINK-36663","OBJECT_ID":"2026-036R","EPOCH":"2026-03-03T14:00:03.000384","MEAN_MOTION":15.84713643,"ECCENTRICITY":0.0001797,"INCLINATION":42.9945,"RA_OF_ASC_NODE":287.0914,"ARG_OF_PERICENTER":265.8159,"MEAN_ANOMALY":124.3179,"EPHEMERIS_TYPE":0,"CLASSIFICATION_TYPE":"U","NORAD_CAT_ID":67919,"ELEMENT_SET_NO":999,"REV_AT_EPOCH":266,"BSTAR":-0.0076335,"MEAN_MOTION_DOT":-0.0160035,"MEAN_MOTION_DDOT":0},{"OBJECT_NAME":"STARLINK-36375","OBJECT_ID":"2026-036S","EPOCH":"2026-03-03T14:00:03.000384","MEAN_MOTION":15.85025691,"ECCENTRICITY":0.0001706,"INCLINATION":42.9944,"RA_OF_ASC_NODE":287.0722,"ARG_OF_PERICENTER":269.9196,"MEAN_ANOMALY":127.859,"EPHEMERIS_TYPE":0,"CLASSIFICATION_TYPE":"U","NORAD_CAT_ID":67920,"ELEMENT_SET_NO":999,"REV_AT_EPOCH":266,"BSTAR":-0.0075328,"MEAN_MOTION_DOT":-0.01603004,"MEAN_MOTION_DDOT":0},{"OBJECT_NAME":"STARLINK-36405","OBJECT_ID":"2026-036T","EPOCH":"2026-03-03T14:00:03.000384","MEAN_MOTION":15.85201325,"ECCENTRICITY":0.000181,"INCLINATION":42.9944,"RA_OF_ASC_NODE":287.0631,"ARG_OF_PERICENTER":264.8746,"MEAN_ANOMALY":136.5976,"EPHEMERIS_TYPE":0,"CLASSIFICATION_TYPE":"U","NORAD_CAT_ID":67921,"ELEMENT_SET_NO":999,"REV_AT_EPOCH":266,"BSTAR":-0.0074302,"MEAN_MOTION_DOT":-0.01595941,"MEAN_MOTION_DDOT":0},{"OBJECT_NAME":"STARLINK-36383","OBJECT_ID":"2026-036U","EPOCH":"2026-03-03T14:00:03.000384","MEAN_MOTION":15.85341101,"ECCENTRICITY":0.0001749,"INCLINATION":42.9946,"RA_OF_ASC_NODE":287.0535,"ARG_OF_PERICENTER":264.9278,"MEAN_ANOMALY":140.366,"EPHEMERIS_TYPE":0,"CLASSIFICATION_TYPE":"U","NORAD_CAT_ID":67922,"ELEMENT_SET_NO":999,"REV_AT_EPOCH":266,"BSTAR":-0.0074042,"MEAN_MOTION_DOT":-0.01600552,"MEAN_MOTION_DDOT":0},{"OBJECT_NAME":"STARLINK-36406","OBJECT_ID":"2026-036V","EPOCH":"2026-03-03T14:00:03.000384","MEAN_MOTION":15.85507184,"ECCENTRICITY":0.0001796,"INCLINATION":42.9945,"RA_OF_ASC_NODE":287.0442,"ARG_OF_PERICENTER":269.4151,"MEAN_ANOMALY":139.567,"EPHEMERIS_TYPE":0,"CLASSIFICATION_TYPE":"U","NORAD_CAT_ID":67923,"ELEMENT_SET_NO":999,"REV_AT_EPOCH":266,"BSTAR":-0.0073334,"MEAN_MOTION_DOT":-0.01598573,"MEAN_MOTION_DDOT":0}]
