STARLINK-36827          
1 67908U 26036E   26062.58336806 -.00999604  00000+0 -51334-2 0  9998
2 67908  42.9942 287.1905 0001889 261.1311  89.5316 15.82780264  2664
STARLINK-36822          
1 67909U 26036F   26062.58336806 -.01259682  00000+0 -64399-2 0  9990
2 67909  42.9943 287.1809 0001886 255.3444  99.3643 15.83056559  2664
STARLINK-36847          
1 67910U 26036G   26062.58336806 -.01488097  00000+0 -75153-2 0  9996
2 67910  42.9943 287.1704 0001890 262.8599  95.8721 15.83322638  2661
STARLINK-36736          
1 67911U 26036H   26062.58336806 -.01538060  00000+0 -77285-2 0  9991
2 67911  42.9941 287.1602 0001692 264.1067  98.6323 15.83523319  2660
STARLINK-36676          
1 67912U 26036J   26062.58336806 -.01597622  00000+0 -79815-2 0  9992
2 67912  42.9943 287.1504 0001816 268.2202  98.4473 15.83753852  2669
STARLINK-36690          
1 67913U 26036K   26062.58336806 -.01575656  00000+0 -78046-2 0  9991
2 67913  42.9944 287.1405 0001792 260.2115 110.4596 15.83890184  2660
STARLINK-36724          
1 67914U 26036L   26062.58336806 -.01604159  00000+0 -78290-2 0  9994
2 67914  42.9940 287.1202 0001728 266.2127 112.2730 15.84250470  2669
STARLINK-36723          
1 67915U 26036M   26062.58336806 -.01607096  00000+0 -79201-2 0  9991
2 67915  42.9943 287.1303 0001938 266.5615 108.0867 15.84052142  2663
STARLINK-36721          
1 67916U 26036N   26062.58336806 -.01606470  00000+0 -77936-2 0  9990
2 67916  42.9944 287.1107 0001725 268.7949 113.6718 15.84377806  2669
STARLINK-36722          
1 67917U 26036P   26062.58336806 -.01599417  00000+0 -76896-2 0  9997
2 67917  42.9944 287.1011 0002031 264.5030 121.8015 15.84546406  2665
STARLINK-36341          
1 67918U 26036Q   26062.58336806 -.01600745  00000+0 -75744-2 0  9996
2 67918  42.9942 287.0816 0001747 266.4834 127.4539 15.84879401  2669
STARLINK-36663          
1 67919U 26036R   26062.58336806 -.01600350  00000+0 -76335-2 0  9996
2 67919  42.9945 287.0914 0001797 265.8159 124.3179 15.84713643  2661
STARLINK-36375          
1 67920U 26036S   26062.58336806 -.01603004  00000+0 -75328-2 0  9998
2 67920  42.9944 287.0722 0001706 269.9196 127.8590 15.85025691  2660
STARLINK-36405          
1 67921U 26036T   26062.58336806 -.01595941  00000+0 -74302-2 0  9990
2 67921  42.9944 287.0631 0001810 264.8746 136.5976 15.85201325  2666
STARLINK-36383          
1 67922U 26036U   26062.58336806 -.01600552  00000+0 -74042-2 0  9997
2 67922  42.9946 287.0535 0001749 264.9278 140.3660 15.85341101  2664
STARLINK-36406          
1 67923U 26036V   26062.58336806 -.01598573  00000+0 -73334-2 0  9990
2 67923  42.9945 287.0442 0001796 269.4151 139.5670 15.85507184  2669
